[{"OBJECT_NAME":"STARLINK-3851","OBJECT_ID":"2022-045P","EPOCH":"2026-03-09T13:58:23.380320","MEAN_MOTION":15.08844801,"ECCENTRICITY":0.0001265,"INCLINATION":53.2179,"RA_OF_ASC_NODE":199.6716,"ARG_OF_PERICENTER":85.2655,"MEAN_ANOMALY":274.8481,"EPHEMERIS_TYPE":0,"CLASSIFICATION_TYPE":"U","NORAD_CAT_ID":52344,"ELEMENT_SET_NO":999,"REV_AT_EPOCH":21576,"BSTAR":0.00020363,"MEAN_MOTION_DOT":2.955e-5,"MEAN_MOTION_DDOT":0},{"OBJECT_NAME":"ISTSAT-1","OBJECT_ID":"2024-128D","EPOCH":"2026-03-09T22:00:43.506144","MEAN_MOTION":15.10231455,"ECCENTRICITY":0.00491528,"INCLINATION":61.9882,"RA_OF_ASC_NODE":196.777,"ARG_OF_PERICENTER":111.8391,"MEAN_ANOMALY":248.7942,"EPHEMERIS_TYPE":0,"CLASSIFICATION_TYPE":"U","NORAD_CAT_ID":60238,"ELEMENT_SET_NO":999,"REV_AT_EPOCH":9146,"BSTAR":0.00064802971,"MEAN_MOTION_DOT":0.0001075,"MEAN_MOTION_DDOT":0}]
